{
  "norad_id": 47746,
  "name": "STARLINK-2160",
  "history": [
    {
      "epoch": "2026-03-28T18:58:10.697376Z",
      "apogee_km": 476.19636042912043,
      "perigee_km": 474.23218995365187,
      "latitude_deg": 9.260904778165422e-06,
      "longitude_deg": 4.767743259410584,
      "height_km": 476.0887378671008,
      "semi_major_axis_km": 6853.351275191386,
      "eccentricity": 0.0001433,
      "inclination_deg": 53.1606,
      "raan_deg": 115.5181,
      "arg_perigee_deg": 88.6317,
      "mean_anomaly_deg": 271.4848,
      "mean_motion_rev_day": 15.30200266
    },
    {
      "epoch": "2026-03-29T04:22:29.341920Z",
      "apogee_km": 476.1503398198438,
      "perigee_km": 474.22181470590294,
      "latitude_deg": 3.5613986963002933e-06,
      "longitude_deg": -138.5173035540183,
      "height_km": 476.08819460238556,
      "semi_major_axis_km": 6853.323077262873,
      "eccentricity": 0.0001407,
      "inclination_deg": 53.1601,
      "raan_deg": 113.697,
      "arg_perigee_deg": 90.2506,
      "mean_anomaly_deg": 269.8656,
      "mean_motion_rev_day": 15.3020971
    }
  ]
}